[{"OBJECT_NAME":"NINGXIA-1 6","OBJECT_ID":"2021-064A","EPOCH":"2026-03-09T23:21:54.693216","MEAN_MOTION":14.08518402,"ECCENTRICITY":0.00071764,"INCLINATION":45.0011,"RA_OF_ASC_NODE":315.3156,"ARG_OF_PERICENTER":113.7517,"MEAN_ANOMALY":246.4073,"EPHEMERIS_TYPE":0,"CLASSIFICATION_TYPE":"U","NORAD_CAT_ID":49018,"ELEMENT_SET_NO":999,"REV_AT_EPOCH":24022,"BSTAR":4.145978e-5,"MEAN_MOTION_DOT":-6.0e-7,"MEAN_MOTION_DDOT":0},{"OBJECT_NAME":"FENGYUN 1C DEB","OBJECT_ID":"1999-025FAN","EPOCH":"2026-02-27T20:51:51.686208","MEAN_MOTION":13.78000943,"ECCENTRICITY":0.0161732,"INCLINATION":98.7481,"RA_OF_ASC_NODE":296.391,"ARG_OF_PERICENTER":216.7018,"MEAN_ANOMALY":142.2971,"EPHEMERIS_TYPE":0,"CLASSIFICATION_TYPE":"U","NORAD_CAT_ID":47012,"ELEMENT_SET_NO":999,"REV_AT_EPOCH":55635,"BSTAR":0.00039153,"MEAN_MOTION_DOT":3.93e-6,"MEAN_MOTION_DDOT":0}]
